{"type": "FeatureCollection", "features": [{"type": "Feature", "properties": {"zona": "Villa Ballester", "aprox": false, "oficial": true, "clc": "0637101006"}, "geometry": {"type": "Polygon", "coordinates": [[[-58.56922615, -34.54034274], [-58.57675939, -34.53429386], [-58.57656479, -34.53387451], [-58.57616806, -34.53313828], [-58.57582474, -34.53248215], [-58.57569504, -34.53223038], [-58.57567215, -34.53219223], [-58.57559204, -34.53203201], [-58.57532501, -34.53152466], [-58.5751152, -34.5311203], [-58.57488632, -34.5306778], [-58.57471466, -34.53034592], [-58.5745964, -34.53012848], [-58.57407379, -34.52912903], [-58.57354736, -34.5280571], [-58.57304382, -34.52697754], [-58.5730629, -34.52696228], [-58.57281272, -34.52653824], [-58.57262039, -34.52617264], [-58.5725441, -34.52603531], [-58.57218933, -34.5254097], [-58.57203293, -34.52519226], [-58.57148743, -34.5243454], [-58.57082995, -34.52489433], [-58.57019014, -34.52542851], [-58.56940717, -34.52608221], [-58.5690281512347, -34.52632050646608], [-58.56862259, -34.5267334], [-58.56791306, -34.52723313], [-58.56786102448853, -34.52724497064738], [-58.567769679416955, -34.52735172025775], [-58.56674957, -34.52827835], [-58.56628799, -34.52865982], [-58.56555939, -34.52923584], [-58.56522751, -34.52949524], [-58.56475067, -34.52986908], [-58.5639267, -34.53051758], [-58.5634346, -34.53090286], [-58.56311798, -34.53115463], [-58.56266403, -34.53151703], [-58.56234741, -34.53177261], [-58.56190872, -34.53212738], [-58.56154633, -34.5324173], [-58.56124878, -34.53265762], [-58.56062317, -34.53316116], [-58.56062317, -34.53316116], [-58.56010437, -34.53358078], [-58.55947876, -34.53408432], [-58.55879593, -34.53463364], [-58.55748749, -34.53568649], [-58.55621719, -34.53669357], [-58.55490112, -34.53774262], [-58.55363464, -34.5387497], [-58.55233765, -34.53977966], [-58.55102921, -34.54082489], [-58.54974365, -34.54184342], [-58.54845047, -34.54287338], [-58.54714966, -34.54390335], [-58.54586029, -34.54492188], [-58.54458237, -34.5459671], [-58.5434761, -34.54687119], [-58.54219437, -34.54791641], [-58.5416069, -34.54839325], [-58.54230881, -34.5491333], [-58.54261398, -34.54946518], [-58.54296875, -34.54986191], [-58.54298401, -34.54987717], [-58.54366684, -34.55064011], [-58.5426712, -34.55147171], [-58.54222488, -34.55184174], [-58.54166031, -34.55231476], [-58.54064179, -34.55318832], [-58.53991318, -34.55384064], [-58.54068756, -34.55450058], [-58.54154205, -34.55522537], [-58.54182908, -34.5554725], [-58.5422554, -34.55583954], [-58.54298401, -34.55646515], [-58.54393387, -34.55727768], [-58.54487228, -34.55807495], [-58.54573822, -34.55879974], [-58.54598617, -34.55903626], [-58.54598618, -34.55903626], [-58.54622922, -34.55884572], [-58.54708099, -34.55817795], [-58.54854584, -34.5570221], [-58.5500145, -34.55584717], [-58.55041685, -34.55552693], [-58.55150986, -34.55465698], [-58.55302811, -34.55344772], [-58.55453109, -34.55226136], [-58.5545311, -34.55226135], [-58.55459338, -34.55206862], [-58.55825043, -34.54930496], [-58.55872744, -34.54892261], [-58.5592308, -34.54851914], [-58.56023025, -34.54772568], [-58.56117248, -34.54697418], [-58.56145096, -34.54675675], [-58.56145096, -34.54675675], [-58.56145968, -34.54674984], [-58.56273946, -34.54565105], [-58.56664224, -34.54242813], [-58.56728405, -34.54191014], [-58.56922614, -34.54034275], [-58.56922615, -34.54034274]]]}}, {"type": "Feature", "properties": {"zona": "Villa Parque San Lorenzo", "aprox": false, "oficial": true, "clc": "0637101025"}, "geometry": {"type": "Polygon", "coordinates": [[[-58.54036416, -34.56384212], [-58.53948975, -34.56304169], [-58.53884125, -34.56250763], [-58.53806686, -34.56185913], [-58.53739929, -34.56130982], [-58.53850937, -34.56039047], [-58.5382843, -34.56020355], [-58.53806305, -34.56002045], [-58.53764725, -34.55967331], [-58.53698349, -34.55912399], [-58.53630447, -34.55856705], [-58.53564453, -34.55802536], [-58.53508377, -34.5575676], [-58.53437424, -34.55698776], [-58.53339004, -34.55618286], [-58.53246307, -34.55543137], [-58.52630856, -34.56030009], [-58.52630854, -34.5603001], [-58.52659607, -34.56056595], [-58.52683258, -34.56079102], [-58.52743912, -34.56136322], [-58.52804184, -34.56191254], [-58.52864075, -34.5624466], [-58.52925873, -34.56299973], [-58.52985764, -34.56352997], [-58.52987671, -34.56354523], [-58.53054047, -34.56415939], [-58.53129578, -34.56485748], [-58.53200531, -34.56551743], [-58.53274918, -34.56620026], [-58.5334816, -34.56686783], [-58.53422546, -34.5675354], [-58.53496933, -34.56820297], [-58.53571701, -34.56887436], [-58.53594971, -34.56908417], [-58.53594971, -34.56908417], [-58.53643417, -34.56846619], [-58.53723526, -34.56744385], [-58.53736092, -34.56755113], [-58.53736241, -34.56755123], [-58.53955336, -34.56479155], [-58.54036416, -34.56384212], [-58.54036416, -34.56384212]]]}}, {"type": "Feature", "properties": {"zona": "Villa Marqués de Aguado", "aprox": false, "oficial": true, "clc": "0637101023"}, "geometry": {"type": "Polygon", "coordinates": [[[-58.54044724, -34.5471611], [-58.53987122, -34.54764938], [-58.53897095, -34.54841232], [-58.53795624, -34.54924774], [-58.53714371, -34.54990769], [-58.53655243, -34.55041885], [-58.53715515, -34.5508461], [-58.53660202, -34.55106354], [-58.53527451, -34.55158997], [-58.5339241, -34.55212402], [-58.53255844, -34.55265808], [-58.5319252, -34.55290604], [-58.53117371, -34.55320358], [-58.53174973, -34.55422974], [-58.53162384, -34.55437088], [-58.53246307, -34.55543137], [-58.53339004, -34.55618286], [-58.53437424, -34.55698776], [-58.53508377, -34.5575676], [-58.53564453, -34.55802536], [-58.53630447, -34.55856705], [-58.53698349, -34.55912399], [-58.53764725, -34.55967331], [-58.53806305, -34.56002045], [-58.5382843, -34.56020355], [-58.53850937, -34.56039047], [-58.53739929, -34.56130982], [-58.53806686, -34.56185913], [-58.53884125, -34.56250763], [-58.53948975, -34.56304169], [-58.54036416, -34.56384212], [-58.54036416, -34.56384212], [-58.54132462, -34.56271744], [-58.54180145, -34.56232452], [-58.54282761, -34.56150437], [-58.54389954, -34.56066895], [-58.54493713, -34.55986023], [-58.54598618, -34.55903626], [-58.54598618, -34.55903626], [-58.54598617, -34.55903626], [-58.54573822, -34.55879974], [-58.54487228, -34.55807495], [-58.54393387, -34.55727768], [-58.54298401, -34.55646515], [-58.5422554, -34.55583954], [-58.54182908, -34.5554725], [-58.54154205, -34.55522537], [-58.54068756, -34.55450058], [-58.53991318, -34.55384064], [-58.54064179, -34.55318832], [-58.54166031, -34.55231476], [-58.54222488, -34.55184174], [-58.5426712, -34.55147171], [-58.54366684, -34.55064011], [-58.54298401, -34.54987717], [-58.54296875, -34.54986191], [-58.54261398, -34.54946518], [-58.54230881, -34.5491333], [-58.5416069, -34.54839325], [-58.54160684, -34.54839319], [-58.54101181, -34.5477562], [-58.54044727, -34.54716114], [-58.54044724, -34.5471611]]]}}, {"type": "Feature", "properties": {"zona": "Villa Pueyrredón", "aprox": false, "oficial": true, "clc": "0637101018"}, "geometry": {"type": "Polygon", "coordinates": [[[-58.56443787, -34.5766983], [-58.56443787, -34.5766983], [-58.56525803, -34.57604599], [-58.56607056, -34.57540512], [-58.56687927, -34.57476807], [-58.56772614, -34.57410431], [-58.56785583, -34.57400131], [-58.56852722, -34.57347488], [-58.56935501, -34.57281876], [-58.57016373, -34.57217407], [-58.57098389, -34.57152176], [-58.57177353, -34.57089233], [-58.57250595, -34.57030869], [-58.57264709, -34.57019425], [-58.57316966, -34.56977848], [-58.57316966, -34.5697784], [-58.57257843, -34.56919098], [-58.57205582, -34.56867218], [-58.57144547, -34.56827545], [-58.57143021, -34.5682869], [-58.57154083, -34.5681572], [-58.57155991, -34.56813431], [-58.57071686, -34.56736756], [-58.56990051, -34.56658554], [-58.56988144, -34.56656647], [-58.5690918, -34.56581497], [-58.56850815, -34.56524277], [-58.56837082, -34.56506729], [-58.56834793, -34.56504059], [-58.5675621, -34.56435013], [-58.56693649, -34.56380081], [-58.56628799, -34.56323242], [-58.56559753, -34.5626564], [-58.56505628, -34.56222221], [-58.564888, -34.56211472], [-58.564888, -34.56211472], [-58.564888, -34.56211472], [-58.564785, -34.56219483], [-58.56419754, -34.56265259], [-58.56369782, -34.5630455], [-58.56335449, -34.56331635], [-58.56308365, -34.56352997], [-58.56251907, -34.56397629], [-58.56155379, -34.56473866], [-58.56124878, -34.56497955], [-58.56068039, -34.56542587], [-58.56016922, -34.56583023], [-58.55981064, -34.56611252], [-58.55892181, -34.56679917], [-58.55818176, -34.56737518], [-58.5575892, -34.56784177], [-58.55650812, -34.56869303], [-58.55563767, -34.56937843], [-58.55496979, -34.56990433], [-58.55443964, -34.57049656], [-58.55412293, -34.57085037], [-58.55345154, -34.57111359], [-58.55345154, -34.57111359], [-58.55273056, -34.57171249], [-58.55182648, -34.57244873], [-58.55170441, -34.5725441], [-58.55064774, -34.57335281], [-58.55026245, -34.57364655], [-58.54959488, -34.57416535], [-58.54857635, -34.57497025], [-58.54798126, -34.57543945], [-58.54763412, -34.57596207], [-58.54759979, -34.57599258], [-58.54759979, -34.57599259], [-58.54829407, -34.57657242], [-58.54845428, -34.57670975], [-58.54921722, -34.57735062], [-58.55007935, -34.57807541], [-58.55090332, -34.57876968], [-58.55165863, -34.57940674], [-58.55231476, -34.57997131], [-58.55309677, -34.58063889], [-58.55393219, -34.58135223], [-58.55472183, -34.58203125], [-58.5554924, -34.58269882], [-58.55619431, -34.58330536], [-58.55731201, -34.58240128], [-58.55809403, -34.58176804], [-58.55883026, -34.58116913], [-58.55957794, -34.58057022], [-58.56027985, -34.58000946], [-58.56126404, -34.57922745], [-58.56202698, -34.5786171], [-58.56283188, -34.57797623], [-58.56361008, -34.57735443], [-58.563694, -34.57728958], [-58.56443787, -34.5766983]]]}}, {"type": "Feature", "properties": {"zona": "Villa Zapiola", "aprox": false, "oficial": true, "clc": "0637101009"}, "geometry": {"type": "Polygon", "coordinates": [[[-58.58740616, -34.56272125], [-58.58747498, -34.56220496], [-58.58758926, -34.56128311], [-58.58748245, -34.56077957], [-58.58709717, -34.55979157], [-58.58678818, -34.55899811], [-58.58665848, -34.55867004], [-58.58624649, -34.55761719], [-58.58581543, -34.55651474], [-58.58544922, -34.55557633], [-58.58517837, -34.55489731], [-58.58503723, -34.55452728], [-58.58492661, -34.55424118], [-58.58451462, -34.55320358], [-58.5844841, -34.55312348], [-58.58423996, -34.55249786], [-58.58397675, -34.55183029], [-58.58389282, -34.55162048], [-58.58369827, -34.55129624], [-58.58307648, -34.54970169], [-58.58283234, -34.5490799], [-58.58239746, -34.54794693], [-58.58239741, -34.54794697], [-58.58074188, -34.54930878], [-58.57987228, -34.55002201], [-58.57987213, -34.55002213], [-58.57951496, -34.55031627], [-58.57935333, -34.55044937], [-58.57873154, -34.55096054], [-58.57782745, -34.55168533], [-58.57720566, -34.55218887], [-58.57705689, -34.55230332], [-58.57664871, -34.55263138], [-58.5759697, -34.55317688], [-58.57575989, -34.55334473], [-58.57527161, -34.55373764], [-58.57497787, -34.55397415], [-58.57462311, -34.55426025], [-58.57394791, -34.55480957], [-58.57387543, -34.55486679], [-58.57339096, -34.55525971], [-58.57305527, -34.55553055], [-58.57209015, -34.55631256], [-58.57113647, -34.55709076], [-58.57017899, -34.55786514], [-58.56942749, -34.5584755], [-58.56873703, -34.55903244], [-58.56825256, -34.55942154], [-58.56710434, -34.56035233], [-58.56591415, -34.561306], [-58.56490326, -34.56209946], [-58.56490292, -34.56209979], [-58.564888, -34.56211472], [-58.56505628, -34.56222221], [-58.56559753, -34.5626564], [-58.56628799, -34.56323242], [-58.56693649, -34.56380081], [-58.5675621, -34.56435013], [-58.56834793, -34.56504059], [-58.56837082, -34.56506729], [-58.56850815, -34.56524277], [-58.5690918, -34.56581497], [-58.56988144, -34.56656647], [-58.56990051, -34.56658554], [-58.57071686, -34.56736756], [-58.57155991, -34.56813431], [-58.57154083, -34.5681572], [-58.57143021, -34.5682869], [-58.57144547, -34.56827545], [-58.57205582, -34.56867218], [-58.57257843, -34.56919098], [-58.57316966, -34.5697784], [-58.57316966, -34.56977848], [-58.57316971, -34.56977844], [-58.57342911, -34.56957245], [-58.57400894, -34.56910706], [-58.5742569, -34.56890869], [-58.57508087, -34.56826019], [-58.57588959, -34.56763077], [-58.57677057, -34.56694429], [-58.57677085, -34.56694407], [-58.57732149, -34.56651519], [-58.57792664, -34.56604385], [-58.57846069, -34.56562805], [-58.57917023, -34.56507874], [-58.58123016, -34.56349564], [-58.58214188, -34.56276703], [-58.58310318, -34.56276322], [-58.58393733, -34.56276748], [-58.58564813, -34.56277621], [-58.58602822, -34.56277815], [-58.58683777, -34.56278229], [-58.58740616, -34.56272125]]]}}, {"type": "Feature", "properties": {"zona": "San Martín Centro", "aprox": false, "oficial": true, "clc": "0637101003"}, "geometry": {"type": "Polygon", "coordinates": [[[-58.52827454, -34.57744599], [-58.52827456, -34.577446], [-58.52827473, -34.57744614], [-58.52908707, -34.57812119], [-58.52991867, -34.57881928], [-58.53068161, -34.57946777], [-58.53145218, -34.5801239], [-58.53173828, -34.58036423], [-58.53223801, -34.58079147], [-58.53302002, -34.58144379], [-58.53381348, -34.58210754], [-58.53458405, -34.58274841], [-58.53533173, -34.5833664], [-58.53580856, -34.58375931], [-58.53612137, -34.58401489], [-58.53651047, -34.58433914], [-58.53651047, -34.58433914], [-58.53699112, -34.58473206], [-58.53777695, -34.58537674], [-58.53856659, -34.58602142], [-58.53935242, -34.58666611], [-58.54014587, -34.58731461], [-58.54090881, -34.58794403], [-58.54167938, -34.58860779], [-58.54244232, -34.58926392], [-58.54363632, -34.58831406], [-58.54456711, -34.58890152], [-58.54541779, -34.58945465], [-58.54558563, -34.58956146], [-58.54629135, -34.59001541], [-58.54645538, -34.59012222], [-58.54707334, -34.59052275], [-58.54707337, -34.59052276], [-58.54775619, -34.58999252], [-58.54835129, -34.58952713], [-58.54896927, -34.58904266], [-58.54975128, -34.5884285], [-58.55022812, -34.58805466], [-58.55081558, -34.58759308], [-58.55168915, -34.58690262], [-58.55168916, -34.58690261], [-58.55168919, -34.58690259], [-58.55269241, -34.58610916], [-58.55361938, -34.58537674], [-58.5550766, -34.58420563], [-58.55617905, -34.5833168], [-58.55619431, -34.58330536], [-58.5554924, -34.58269882], [-58.55472183, -34.58203125], [-58.55393219, -34.58135223], [-58.55309677, -34.58063889], [-58.55231476, -34.57997131], [-58.55165863, -34.57940674], [-58.55090332, -34.57876968], [-58.55007935, -34.57807541], [-58.54921722, -34.57735062], [-58.54845428, -34.57670975], [-58.54829407, -34.57657242], [-58.54759979, -34.57599259], [-58.54759979, -34.57599258], [-58.54682922, -34.57534409], [-58.54605865, -34.5746994], [-58.5452919, -34.5740509], [-58.5445137, -34.57340622], [-58.54376221, -34.5727768], [-58.54320908, -34.57231522], [-58.54291916, -34.57207108], [-58.54268265, -34.57187271], [-58.54213715, -34.57141876], [-58.54139709, -34.57081223], [-58.54063034, -34.57018662], [-58.53974152, -34.56956864], [-58.53965759, -34.56949997], [-58.53943037, -34.56930641], [-58.53893661, -34.5688858], [-58.53866434, -34.56865596], [-58.53834915, -34.56838989], [-58.53788757, -34.56800079], [-58.53736185, -34.56755193], [-58.53736092, -34.56755113], [-58.53723526, -34.56744385], [-58.53643417, -34.56846619], [-58.53594971, -34.56908417], [-58.53594967, -34.56908421], [-58.53559875, -34.56951904], [-58.53477097, -34.57055283], [-58.53575134, -34.57138825], [-58.53467941, -34.57226563], [-58.53363419, -34.5731163], [-58.5325737, -34.57395935], [-58.53151321, -34.5748024], [-58.53044891, -34.57566834], [-58.52938461, -34.57653809], [-58.52827457, -34.57744596], [-58.52827454, -34.57744599]]]}}, {"type": "Feature", "properties": {"zona": "Villa Yapeyú", "aprox": false, "oficial": true, "clc": "0637101027"}, "geometry": {"type": "MultiPolygon", "coordinates": [[[[-58.54759979, -34.57599258], [-58.54759979, -34.57599259], [-58.55345154, -34.57111359], [-58.54759979, -34.57599258]]], [[[-58.55345154, -34.57111359], [-58.55306625, -34.57042694], [-58.55256653, -34.5695343], [-58.55204773, -34.56860733], [-58.55155563, -34.56773758], [-58.5512085, -34.56708527], [-58.55120848, -34.56708528], [-58.55019379, -34.56785202], [-58.54914856, -34.56864548], [-58.54805374, -34.56947327], [-58.54701233, -34.57026291], [-58.54593658, -34.57107544], [-58.5448761, -34.57189941], [-58.54376221, -34.5727768], [-58.5445137, -34.57340622], [-58.5452919, -34.5740509], [-58.54605865, -34.5746994], [-58.54682922, -34.57534409], [-58.54759979, -34.57599258], [-58.54763412, -34.57596207], [-58.54798126, -34.57543945], [-58.54857635, -34.57497025], [-58.54959488, -34.57416535], [-58.55026245, -34.57364655], [-58.55064774, -34.57335281], [-58.55170441, -34.5725441], [-58.55182648, -34.57244873], [-58.55273056, -34.57171249], [-58.55345154, -34.57111359]]]]}}, {"type": "Feature", "properties": {"zona": "San Andrés", "aprox": false, "oficial": true, "clc": "0637101026"}, "geometry": {"type": "Polygon", "coordinates": [[[-58.54598618, -34.55903626], [-58.54598618, -34.55903626], [-58.54493713, -34.55986023], [-58.54389954, -34.56066895], [-58.54282761, -34.56150437], [-58.54180145, -34.56232452], [-58.54132462, -34.56271744], [-58.54036416, -34.56384212], [-58.54036416, -34.56384212], [-58.53955336, -34.56479155], [-58.53736241, -34.56755123], [-58.53736185, -34.56755193], [-58.53788757, -34.56800079], [-58.53834915, -34.56838989], [-58.53866434, -34.56865596], [-58.53893661, -34.5688858], [-58.53943037, -34.56930641], [-58.53965759, -34.56949997], [-58.53974152, -34.56956864], [-58.54063034, -34.57018662], [-58.54139709, -34.57081223], [-58.54213715, -34.57141876], [-58.54268265, -34.57187271], [-58.54291916, -34.57207108], [-58.54320908, -34.57231522], [-58.54376221, -34.5727768], [-58.5448761, -34.57189941], [-58.54593658, -34.57107544], [-58.54701233, -34.57026291], [-58.54805374, -34.56947327], [-58.54914856, -34.56864548], [-58.55019379, -34.56785202], [-58.55120848, -34.56708528], [-58.5512085, -34.56708527], [-58.55120849, -34.56708526], [-58.55108261, -34.56676102], [-58.55079269, -34.56650543], [-58.55094147, -34.56640244], [-58.55068207, -34.56573486], [-58.55042648, -34.56508637], [-58.55000687, -34.56396484], [-58.54989624, -34.56397629], [-58.54980469, -34.56390381], [-58.54994202, -34.56379318], [-58.54958343, -34.56282425], [-58.54919815, -34.56181717], [-58.54894638, -34.56155396], [-58.54855347, -34.56121445], [-58.54795456, -34.56070328], [-58.54697418, -34.55986405], [-58.54598618, -34.55903626], [-58.54598618, -34.55903626]]]}}, {"type": "Feature", "properties": {"zona": "Villa Las Heras", "aprox": false, "oficial": true, "clc": "0637101013"}, "geometry": {"type": "Polygon", "coordinates": [[[-58.55453109, -34.55226136], [-58.55302811, -34.55344772], [-58.55150986, -34.55465698], [-58.55041685, -34.55552693], [-58.5500145, -34.55584717], [-58.54854584, -34.5570221], [-58.54708099, -34.55817795], [-58.54622922, -34.55884572], [-58.54598618, -34.55903626], [-58.54598618, -34.55903626], [-58.54697418, -34.55986405], [-58.54795456, -34.56070328], [-58.54855347, -34.56121445], [-58.54894638, -34.56155396], [-58.54919815, -34.56181717], [-58.54958343, -34.56282425], [-58.54994202, -34.56379318], [-58.54980469, -34.56390381], [-58.54989624, -34.56397629], [-58.55000687, -34.56396484], [-58.55042648, -34.56508637], [-58.55068207, -34.56573486], [-58.55094147, -34.56640244], [-58.55079269, -34.56650543], [-58.55108261, -34.56676102], [-58.55120849, -34.56708526], [-58.5512085, -34.56708527], [-58.55155563, -34.56773758], [-58.55204773, -34.56860733], [-58.55256653, -34.5695343], [-58.55306625, -34.57042694], [-58.55345154, -34.57111359], [-58.55345154, -34.57111359], [-58.55412293, -34.57085037], [-58.55443964, -34.57049656], [-58.55496979, -34.56990433], [-58.55563767, -34.56937843], [-58.55650812, -34.56869303], [-58.5575892, -34.56784177], [-58.55818176, -34.56737518], [-58.55892181, -34.56679917], [-58.55981064, -34.56611252], [-58.56016922, -34.56583023], [-58.56068039, -34.56542587], [-58.56124878, -34.56497955], [-58.56155379, -34.56473866], [-58.56251907, -34.56397629], [-58.56308365, -34.56352997], [-58.56335449, -34.56331635], [-58.56369782, -34.5630455], [-58.56419754, -34.56265259], [-58.564785, -34.56219483], [-58.564888, -34.56211472], [-58.564888, -34.56211472], [-58.56490303, -34.56209926], [-58.56402588, -34.56135178], [-58.56326294, -34.56050873], [-58.56296921, -34.56019592], [-58.56261063, -34.55981445], [-58.56191254, -34.5590744], [-58.56119919, -34.55832291], [-58.5605011, -34.55757904], [-58.56006645, -34.55710837], [-58.55981064, -34.55683136], [-58.55921936, -34.55619431], [-58.55831146, -34.55521011], [-58.55809021, -34.55537415], [-58.55744934, -34.55479813], [-58.55648041, -34.55393601], [-58.55552673, -34.55311585], [-58.55453111, -34.55226137], [-58.5545311, -34.55226135], [-58.55453109, -34.55226136]]]}}, {"type": "Feature", "properties": {"zona": "Villa Guido", "aprox": false, "oficial": true, "clc": "0637101012"}, "geometry": {"type": "Polygon", "coordinates": [[[-58.56145096, -34.54675675], [-58.56117248, -34.54697418], [-58.56023025, -34.54772568], [-58.5592308, -34.54851914], [-58.55872744, -34.54892261], [-58.55825043, -34.54930496], [-58.55459338, -34.55206862], [-58.5545311, -34.55226135], [-58.55453111, -34.55226137], [-58.55552673, -34.55311585], [-58.55648041, -34.55393601], [-58.55744934, -34.55479813], [-58.55809021, -34.55537415], [-58.55831146, -34.55521011], [-58.55921936, -34.55619431], [-58.55981064, -34.55683136], [-58.56006645, -34.55710837], [-58.5605011, -34.55757904], [-58.56119919, -34.55832291], [-58.56191254, -34.5590744], [-58.56261063, -34.55981445], [-58.56296921, -34.56019592], [-58.56326294, -34.56050873], [-58.56402588, -34.56135178], [-58.56490303, -34.56209926], [-58.56490326, -34.56209946], [-58.56591415, -34.561306], [-58.56710434, -34.56035233], [-58.56825256, -34.55942154], [-58.56873703, -34.55903244], [-58.56942749, -34.5584755], [-58.57017899, -34.55786514], [-58.57113647, -34.55709076], [-58.57209015, -34.55631256], [-58.57305527, -34.55553055], [-58.57339096, -34.55525971], [-58.57387543, -34.55486679], [-58.57394791, -34.55480957], [-58.57462311, -34.55426025], [-58.57497787, -34.55397415], [-58.57527161, -34.55373764], [-58.57575989, -34.55334473], [-58.5759697, -34.55317688], [-58.57664871, -34.55263138], [-58.57705689, -34.55230332], [-58.57720566, -34.55218887], [-58.57782745, -34.55168533], [-58.57873154, -34.55096054], [-58.57935333, -34.55044937], [-58.57951496, -34.55031627], [-58.57987213, -34.55002213], [-58.57908249, -34.5494194], [-58.57805634, -34.54863739], [-58.57746506, -34.54818344], [-58.57687759, -34.54774094], [-58.57563782, -34.54861069], [-58.57472992, -34.54934311], [-58.57369614, -34.5501976], [-58.57279205, -34.55093002], [-58.57190323, -34.55016327], [-58.57102585, -34.54943848], [-58.57025528, -34.54880524], [-58.56934357, -34.54953384], [-58.56796646, -34.54921722], [-58.56716156, -34.54897308], [-58.56650925, -34.54872513], [-58.5655098, -34.54834366], [-58.56415176, -34.54782486], [-58.56279373, -34.54728699], [-58.56145096, -34.54675675]]]}}, {"type": "Feature", "properties": {"zona": "Villa Sucre", "aprox": false, "oficial": true, "clc": "0637101010"}, "geometry": {"type": "Polygon", "coordinates": [[[-58.56728405, -34.54191014], [-58.56664224, -34.54242813], [-58.56273946, -34.54565105], [-58.56145968, -34.54674984], [-58.56145096, -34.54675675], [-58.56279373, -34.54728699], [-58.56415176, -34.54782486], [-58.5655098, -34.54834366], [-58.56650925, -34.54872513], [-58.56716156, -34.54897308], [-58.56796646, -34.54921722], [-58.56934357, -34.54953384], [-58.57025528, -34.54880524], [-58.57102585, -34.54943848], [-58.57190323, -34.55016327], [-58.57279205, -34.55093002], [-58.57369614, -34.5501976], [-58.57472992, -34.54934311], [-58.57563782, -34.54861069], [-58.57687759, -34.54774094], [-58.57562637, -34.54680252], [-58.57467651, -34.54608536], [-58.5737915, -34.54540634], [-58.57305145, -34.54483414], [-58.57284164, -34.54498291], [-58.57191086, -34.54564285], [-58.57139206, -34.54521179], [-58.57045364, -34.54444885], [-58.56943512, -34.54362869], [-58.56840897, -34.54280472], [-58.56741333, -34.54200745], [-58.56728405, -34.54191014], [-58.56728405, -34.54191014]]]}}, {"type": "Feature", "properties": {"zona": "Villa Godoy Cruz", "aprox": false, "oficial": true, "clc": "0637101014"}, "geometry": {"type": "Polygon", "coordinates": [[[-58.56922614, -34.54034275], [-58.56728405, -34.54191014], [-58.56728405, -34.54191014], [-58.56741333, -34.54200745], [-58.56840897, -34.54280472], [-58.56943512, -34.54362869], [-58.57045364, -34.54444885], [-58.57139206, -34.54521179], [-58.57191086, -34.54564285], [-58.57284164, -34.54498291], [-58.57305145, -34.54483414], [-58.5737915, -34.54540634], [-58.57467651, -34.54608536], [-58.57562637, -34.54680252], [-58.57687759, -34.54774094], [-58.57687759, -34.54774094], [-58.57746506, -34.54818344], [-58.57805634, -34.54863739], [-58.57908249, -34.5494194], [-58.57987213, -34.55002213], [-58.57987228, -34.55002201], [-58.58074188, -34.54930878], [-58.58239741, -34.54794697], [-58.58239746, -34.54794693], [-58.58239744, -34.54794688], [-58.58193588, -34.546772], [-58.5815239, -34.54563522], [-58.58119583, -34.54496384], [-58.58086777, -34.54428864], [-58.58047104, -34.54345322], [-58.58007812, -34.54261017], [-58.57968521, -34.54174423], [-58.57930374, -34.54087448], [-58.57893753, -34.54004669], [-58.57885742, -34.53986359], [-58.57857513, -34.53908157], [-58.57857513, -34.53908157], [-58.57783381003101, -34.53701335208363], [-58.577513183379224, -34.53587704079912], [-58.57683563, -34.53445816], [-58.57675939, -34.53429386], [-58.575144580446576, -34.53553653027967], [-58.57187874654449, -34.53821051175739], [-58.57187874654449, -34.53821051175739], [-58.57187874654449, -34.53821051175739], [-58.57187874654449, -34.53821051175739], [-58.56922615, -34.54034274], [-58.56922615, -34.54034274], [-58.56922615, -34.54034274], [-58.56922615, -34.54034275], [-58.56922614, -34.54034275]]]}}, {"type": "Feature", "properties": {"zona": "Barrio Parque General San Martin", "aprox": false, "oficial": true, "clc": "0637101001"}, "geometry": {"type": "Polygon", "coordinates": [[[-58.58119583, -34.57076264], [-58.58231354, -34.57172012], [-58.5834465, -34.57268524], [-58.58421383, -34.57333835], [-58.58444595, -34.57353592], [-58.58449995, -34.57360064], [-58.58449994, -34.57360077], [-58.59035611, -34.56897472], [-58.5903561, -34.56897472], [-58.59034348, -34.56894684], [-58.59030514, -34.56882701], [-58.58964539, -34.56676483], [-58.58927536, -34.56578446], [-58.58889389, -34.56479263], [-58.58856583, -34.56397629], [-58.58792114, -34.5631218], [-58.58757401, -34.56301117], [-58.58740616, -34.56272125], [-58.58683777, -34.56278229], [-58.58602822, -34.56277815], [-58.58564813, -34.56277621], [-58.58393733, -34.56276748], [-58.58310318, -34.56276322], [-58.58214188, -34.56276703], [-58.58123016, -34.56349564], [-58.57917023, -34.56507874], [-58.57846069, -34.56562805], [-58.57792664, -34.56604385], [-58.57732149, -34.56651519], [-58.57677085, -34.56694407], [-58.57677078, -34.56694412], [-58.57784653, -34.56787872], [-58.57846069, -34.56840897], [-58.57896423, -34.56884384], [-58.58007431, -34.56980133], [-58.58119583, -34.57076264]]]}}, {"type": "Feature", "properties": {"zona": "Billinghurst", "aprox": false, "oficial": true, "clc": "0637101002"}, "geometry": {"type": "Polygon", "coordinates": [[[-58.57208255, -34.5834098], [-58.58449994, -34.57360077], [-58.58449995, -34.57360064], [-58.58444595, -34.57353592], [-58.58421383, -34.57333835], [-58.5834465, -34.57268524], [-58.58231354, -34.57172012], [-58.58119583, -34.57076264], [-58.58007431, -34.56980133], [-58.57896423, -34.56884384], [-58.57846069, -34.56840897], [-58.57784653, -34.56787872], [-58.57677078, -34.56694412], [-58.57677057, -34.56694429], [-58.57588959, -34.56763077], [-58.57508087, -34.56826019], [-58.5742569, -34.56890869], [-58.57400894, -34.56910706], [-58.57342911, -34.56957245], [-58.57316971, -34.56977844], [-58.57316966, -34.56977848], [-58.57264709, -34.57019425], [-58.57250595, -34.57030869], [-58.57177353, -34.57089233], [-58.57098389, -34.57152176], [-58.57016373, -34.57217407], [-58.56935501, -34.57281876], [-58.56852722, -34.57347488], [-58.56785583, -34.57400131], [-58.56772614, -34.57410431], [-58.56687927, -34.57476807], [-58.56607056, -34.57540512], [-58.56525803, -34.57604599], [-58.56443787, -34.5766983], [-58.56443787, -34.5766983], [-58.5652504, -34.57743073], [-58.56552124, -34.57767105], [-58.56580353, -34.57792664], [-58.56636047, -34.57840729], [-58.56662369, -34.57863617], [-58.56691742, -34.57888794], [-58.56775665, -34.57960892], [-58.56886673, -34.58057022], [-58.56995773, -34.58151245], [-58.5708046, -34.58224487], [-58.5710907, -34.58249664], [-58.57208242, -34.58340987], [-58.57208244, -34.58340989], [-58.57208246, -34.58340988], [-58.57208255, -34.5834098]]]}}, {"type": "Feature", "properties": {"zona": "Villa Libertad", "aprox": false, "oficial": true, "clc": "0637101019"}, "geometry": {"type": "Polygon", "coordinates": [[[-58.55617905, -34.5833168], [-58.5550766, -34.58420563], [-58.55361938, -34.58537674], [-58.55269241, -34.58610916], [-58.55168919, -34.58690259], [-58.55168916, -34.58690261], [-58.55168915, -34.58690262], [-58.55168919, -34.58690264], [-58.55170148, -34.58690996], [-58.55295181, -34.58765411], [-58.55399704, -34.58826828], [-58.55423737, -34.58840942], [-58.55457687, -34.58860779], [-58.55505371, -34.58888626], [-58.55559921, -34.5892067], [-58.55633163, -34.58963776], [-58.55738068, -34.59026718], [-58.55841064, -34.59089279], [-58.55945587, -34.59152222], [-58.55961217, -34.59161472], [-58.55961227, -34.59161479], [-58.56202316, -34.59125137], [-58.56243897, -34.59132003], [-58.56304932, -34.59064483], [-58.56373596, -34.59001159], [-58.56412125, -34.58969879], [-58.57208244, -34.58340989], [-58.57208242, -34.58340987], [-58.5710907, -34.58249664], [-58.5708046, -34.58224487], [-58.56995773, -34.58151245], [-58.56886673, -34.58057022], [-58.56775665, -34.57960892], [-58.56691742, -34.57888794], [-58.56662369, -34.57863617], [-58.56636047, -34.57840729], [-58.56580353, -34.57792664], [-58.56552124, -34.57767105], [-58.5652504, -34.57743073], [-58.56443787, -34.5766983], [-58.563694, -34.57728958], [-58.56361008, -34.57735443], [-58.56283188, -34.57797623], [-58.56202698, -34.5786171], [-58.56126404, -34.57922745], [-58.56027985, -34.58000946], [-58.55957794, -34.58057022], [-58.55883026, -34.58116913], [-58.55809403, -34.58176804], [-58.55731201, -34.58240128], [-58.55619431, -34.58330536], [-58.55617905, -34.5833168]]]}}, {"type": "Feature", "properties": {"zona": "Villa Ayacucho", "aprox": false, "oficial": true, "clc": "0637101005"}, "geometry": {"type": "Polygon", "coordinates": [[[-58.55168915, -34.58690262], [-58.55081558, -34.58759308], [-58.55022812, -34.58805466], [-58.54975128, -34.5884285], [-58.54896927, -34.58904266], [-58.54835129, -34.58952713], [-58.54775619, -34.58999252], [-58.54707336, -34.59052277], [-58.5473671, -34.59070969], [-58.54772186, -34.59094238], [-58.54824448, -34.59127808], [-58.54870987, -34.59157562], [-58.54943848, -34.59204865], [-58.55026245, -34.59257889], [-58.55076378, -34.59292881], [-58.5507862, -34.59294446], [-58.55078621, -34.59294447], [-58.55078704, -34.5929451], [-58.55961227, -34.59161479], [-58.55961217, -34.59161472], [-58.55945587, -34.59152222], [-58.55841064, -34.59089279], [-58.55738068, -34.59026718], [-58.55633163, -34.58963776], [-58.55559921, -34.5892067], [-58.55505371, -34.58888626], [-58.55457687, -34.58860779], [-58.55423737, -34.58840942], [-58.55399704, -34.58826828], [-58.55295181, -34.58765411], [-58.55170148, -34.58690996], [-58.55168919, -34.58690264], [-58.55168915, -34.58690262]]]}}, {"type": "Feature", "properties": {"zona": "Villa Monteagudo", "aprox": false, "oficial": true, "clc": "0637101007"}, "geometry": {"type": "Polygon", "coordinates": [[[-58.53029633, -34.59020996], [-58.53055954, -34.59037018], [-58.53078842, -34.59051514], [-58.53197479, -34.59123993], [-58.5331955, -34.59199143], [-58.53406525, -34.59252548], [-58.53493881, -34.59305573], [-58.53582382, -34.5935936], [-58.53673172, -34.5941391], [-58.53698349, -34.59429932], [-58.53760147, -34.59466553], [-58.53804113, -34.59486627], [-58.53804141, -34.59486638], [-58.55078704, -34.5929451], [-58.55078621, -34.59294447], [-58.5507862, -34.59294446], [-58.55076378, -34.59292881], [-58.55026245, -34.59257889], [-58.54943848, -34.59204865], [-58.54870987, -34.59157562], [-58.54824448, -34.59127808], [-58.54772186, -34.59094238], [-58.5473671, -34.59070969], [-58.54707336, -34.59052277], [-58.54707336, -34.59052276], [-58.54707334, -34.59052275], [-58.54645538, -34.59012222], [-58.54629135, -34.59001541], [-58.54558563, -34.58956146], [-58.54541779, -34.58945465], [-58.54456711, -34.58890152], [-58.54363632, -34.58831406], [-58.54244232, -34.58926392], [-58.54167938, -34.58860779], [-58.54090881, -34.58794403], [-58.54014587, -34.58731461], [-58.53935242, -34.58666611], [-58.53856659, -34.58602142], [-58.53777695, -34.58537674], [-58.53699112, -34.58473206], [-58.53651047, -34.58433914], [-58.53651047, -34.58433914], [-58.53583145, -34.58493042], [-58.53546143, -34.58525467], [-58.53475571, -34.58588791], [-58.53445053, -34.58616257], [-58.53408051, -34.58649445], [-58.53342056, -34.58705521], [-58.53326034, -34.58718872], [-58.53256989, -34.58777237], [-58.53245926, -34.58786011], [-58.53199768, -34.58837891], [-58.53116989, -34.58929443], [-58.53029633, -34.59020996], [-58.53029633, -34.59020996]]]}}, {"type": "Feature", "properties": {"zona": "Villa Parque Figueroa Alcorta", "aprox": false, "oficial": true, "clc": "0637101024"}, "geometry": {"type": "Polygon", "coordinates": [[[-58.53029633, -34.59020996], [-58.53029633, -34.59020996], [-58.52990723, -34.59097672], [-58.52967072, -34.59143829], [-58.52946472, -34.59183121], [-58.52903366, -34.59266281], [-58.52872848, -34.59324646], [-58.52838516, -34.59388733], [-58.5283432, -34.59398651], [-58.52832413, -34.59402084], [-58.52791977, -34.59486389], [-58.52747345, -34.59571838], [-58.52754934, -34.59600645], [-58.52766037, -34.59642792], [-58.52766361, -34.59644247], [-58.52877045, -34.59626388], [-58.53804141, -34.59486638], [-58.53804113, -34.59486627], [-58.53760147, -34.59466553], [-58.53698349, -34.59429932], [-58.53673172, -34.5941391], [-58.53582382, -34.5935936], [-58.53493881, -34.59305573], [-58.53406525, -34.59252548], [-58.5331955, -34.59199143], [-58.53197479, -34.59123993], [-58.53078842, -34.59051514], [-58.53055954, -34.59037018], [-58.53029633, -34.59020996]]]}}, {"type": "Feature", "properties": {"zona": "Villa Lynch", "aprox": false, "oficial": true, "clc": "0637101020"}, "geometry": {"type": "Polygon", "coordinates": [[[-58.53029633, -34.59020996], [-58.52928925, -34.58958435], [-58.5283699, -34.58901596], [-58.52750015, -34.5884819], [-58.52660751, -34.5879364], [-58.52553177, -34.5872879], [-58.52380371, -34.58786011], [-58.52286148, -34.58813858], [-58.52198029, -34.5884018], [-58.52021408, -34.58892441], [-58.52005768, -34.58897019], [-58.51917088, -34.58929946], [-58.51917048, -34.5892996], [-58.52090073, -34.59305953], [-58.522789, -34.597229], [-58.52766361, -34.59644247], [-58.52766037, -34.59642792], [-58.52754934, -34.59600645], [-58.52747345, -34.59571838], [-58.52791977, -34.59486389], [-58.52832413, -34.59402084], [-58.5283432, -34.59398651], [-58.52838516, -34.59388733], [-58.52872848, -34.59324646], [-58.52903366, -34.59266281], [-58.52946472, -34.59183121], [-58.52967072, -34.59143829], [-58.52990723, -34.59097672], [-58.53029633, -34.59020996], [-58.53029633, -34.59020996]]]}}, {"type": "Feature", "properties": {"zona": "Villa Chacabuco", "aprox": false, "oficial": true, "clc": "0637101008"}, "geometry": {"type": "Polygon", "coordinates": [[[-58.52928925, -34.58958435], [-58.53029633, -34.59020996], [-58.53029633, -34.59020996], [-58.53116989, -34.58929443], [-58.53199768, -34.58837891], [-58.53245926, -34.58786011], [-58.53256989, -34.58777237], [-58.53326034, -34.58718872], [-58.53342056, -34.58705521], [-58.53408051, -34.58649445], [-58.53445053, -34.58616257], [-58.53475571, -34.58588791], [-58.53546143, -34.58525467], [-58.53583145, -34.58493042], [-58.53651047, -34.58433914], [-58.53651047, -34.58433914], [-58.53612137, -34.58401489], [-58.53580856, -34.58375931], [-58.53533173, -34.5833664], [-58.53458405, -34.58274841], [-58.53381348, -34.58210754], [-58.53302002, -34.58144379], [-58.53223801, -34.58079147], [-58.53173828, -34.58036423], [-58.53145218, -34.5801239], [-58.53068161, -34.57946777], [-58.52991867, -34.57881928], [-58.52908707, -34.57812119], [-58.52827473, -34.57744614], [-58.52827456, -34.577446], [-58.52827454, -34.57744599], [-58.52827428, -34.57744619], [-58.52731705, -34.57822037], [-58.52775043, -34.57849236], [-58.52822876, -34.57879257], [-58.52781677, -34.57911301], [-58.52676929, -34.57959193], [-58.52639008, -34.57976532], [-58.52474213, -34.58052063], [-58.52337265, -34.58114624], [-58.52196121, -34.5817833], [-58.5209198, -34.58225632], [-58.5198555, -34.58273315], [-58.51876831, -34.58322907], [-58.51821518, -34.58351517], [-58.51684235, -34.5842417], [-58.51684231, -34.58424171], [-58.51702118, -34.58462905], [-58.51917048, -34.5892996], [-58.51917088, -34.58929946], [-58.52005768, -34.58897019], [-58.52021408, -34.58892441], [-58.52198029, -34.5884018], [-58.52286148, -34.58813858], [-58.52380371, -34.58786011], [-58.52553177, -34.5872879], [-58.52660751, -34.5879364], [-58.52750015, -34.5884819], [-58.5283699, -34.58901596], [-58.52928925, -34.58958435]]]}}, {"type": "Feature", "properties": {"zona": "Villa Maipu", "aprox": false, "oficial": true, "clc": "0637101021"}, "geometry": {"type": "Polygon", "coordinates": [[[-58.51419795, -34.56450762], [-58.51315689, -34.56589126], [-58.51082993, -34.56801605], [-58.50984955, -34.56925582], [-58.51314926, -34.57624435], [-58.51684231, -34.58424171], [-58.51684235, -34.5842417], [-58.51821518, -34.58351517], [-58.51876831, -34.58322907], [-58.5198555, -34.58273315], [-58.5209198, -34.58225632], [-58.52196121, -34.5817833], [-58.52337265, -34.58114624], [-58.52474213, -34.58052063], [-58.52639008, -34.57976532], [-58.52676929, -34.57959193], [-58.52781677, -34.57911301], [-58.52822876, -34.57879257], [-58.52775043, -34.57849236], [-58.52731705, -34.57822037], [-58.52827428, -34.57744619], [-58.52827454, -34.57744599], [-58.52827457, -34.57744596], [-58.52938461, -34.57653809], [-58.53044891, -34.57566834], [-58.53151321, -34.5748024], [-58.5325737, -34.57395935], [-58.53363419, -34.5731163], [-58.53467941, -34.57226563], [-58.53575134, -34.57138825], [-58.53477097, -34.57055283], [-58.53559875, -34.56951904], [-58.53594967, -34.56908421], [-58.53594971, -34.56908417], [-58.53571701, -34.56887436], [-58.53496933, -34.56820297], [-58.53422546, -34.5675354], [-58.5334816, -34.56686783], [-58.53274918, -34.56620026], [-58.53200531, -34.56551743], [-58.53129578, -34.56485748], [-58.53054047, -34.56415939], [-58.52987671, -34.56354523], [-58.52985764, -34.56352997], [-58.52925873, -34.56299973], [-58.52864075, -34.5624466], [-58.52804184, -34.56191254], [-58.52743912, -34.56136322], [-58.52683258, -34.56079102], [-58.52659607, -34.56056595], [-58.52630854, -34.5603001], [-58.52630853, -34.56030009], [-58.52563477, -34.55967713], [-58.52504349, -34.55912781], [-58.52472687, -34.55883408], [-58.52443695, -34.55857086], [-58.52378789, -34.55797271], [-58.52283689, -34.55902885], [-58.52204053, -34.55991325], [-58.52192172, -34.56004832], [-58.52111835, -34.56093748], [-58.521038, -34.5610266], [-58.5202403, -34.5619125], [-58.52017298, -34.56198718], [-58.51933384, -34.56291917], [-58.5192591, -34.56300217], [-58.51837627, -34.5639826], [-58.51749878, -34.5649571], [-58.51659455, -34.5659613], [-58.51574707, -34.56544876], [-58.51485443, -34.56490326], [-58.51440628, -34.56463318], [-58.51419795, -34.56450762]]]}}, {"type": "Feature", "properties": {"zona": "Villa Granaderos De San Martin", "aprox": false, "oficial": true, "clc": "0637101015"}, "geometry": {"type": "Polygon", "coordinates": [[[-58.54044724, -34.5471611], [-58.53983307, -34.54650879], [-58.53924179, -34.54587555], [-58.53863525, -34.54522324], [-58.53805923, -34.54460526], [-58.53774643, -34.54416656], [-58.53368378, -34.53981017], [-58.53350449, -34.5396614], [-58.5297966, -34.53733062], [-58.52750016, -34.54167175], [-58.52904511, -34.54238509], [-58.52662277, -34.54507064], [-58.52462006, -34.55045318], [-58.52283097, -34.55307388], [-58.51912689, -34.55795669], [-58.51419795, -34.56450762], [-58.51440628, -34.56463318], [-58.51485443, -34.56490326], [-58.51574707, -34.56544876], [-58.51659455, -34.5659613], [-58.51749878, -34.5649571], [-58.51837627, -34.5639826], [-58.5192591, -34.56300217], [-58.51933384, -34.56291917], [-58.52017298, -34.56198718], [-58.5202403, -34.5619125], [-58.521038, -34.5610266], [-58.52111835, -34.56093748], [-58.52192172, -34.56004832], [-58.52204053, -34.55991325], [-58.52283689, -34.55902885], [-58.52378789, -34.55797271], [-58.52443695, -34.55857086], [-58.52472687, -34.55883408], [-58.52504349, -34.55912781], [-58.52563477, -34.55967713], [-58.52630853, -34.56030009], [-58.52630853, -34.56030009], [-58.52630854, -34.5603001], [-58.52630856, -34.56030009], [-58.53246307, -34.55543137], [-58.53162384, -34.55437088], [-58.53174973, -34.55422974], [-58.53117371, -34.55320358], [-58.5319252, -34.55290604], [-58.53255844, -34.55265808], [-58.5339241, -34.55212402], [-58.53527451, -34.55158997], [-58.53660202, -34.55106354], [-58.53715515, -34.5508461], [-58.53655243, -34.55041885], [-58.53714371, -34.54990769], [-58.53795624, -34.54924774], [-58.53897095, -34.54841232], [-58.53987122, -34.54764938], [-58.54044724, -34.5471611]]]}}, {"type": "Feature", "properties": {"zona": "Villa Gregoria Matorras", "aprox": false, "oficial": true, "clc": "0637101016"}, "geometry": {"type": "Polygon", "coordinates": [[[-58.54160684, -34.54839319], [-58.5416069, -34.54839325], [-58.54219437, -34.54791641], [-58.5434761, -34.54687119], [-58.54458237, -34.5459671], [-58.54586029, -34.54492188], [-58.54714966, -34.54390335], [-58.54845047, -34.54287338], [-58.54974365, -34.54184342], [-58.55102921, -34.54082489], [-58.55233765, -34.53977966], [-58.55363464, -34.5387497], [-58.55490112, -34.53774262], [-58.55621719, -34.53669357], [-58.55748749, -34.53568649], [-58.55879593, -34.53463364], [-58.55947876, -34.53408432], [-58.56010437, -34.53358078], [-58.56062317, -34.53316116], [-58.561252874652546, -34.532796680593954], [-58.57074560154122, -34.52512955477122], [-58.5710236082437, -34.522904997271006], [-58.57020410748284, -34.52133465655499], [-58.56993179228443, -34.520681789783765], [-58.5694741011607, -34.51958265705664], [-58.56908867678089, -34.51863501251434], [-58.56864147837727, -34.51752295966455], [-58.55376435, -34.53019714], [-58.54878617, -34.53447341], [-58.54628754, -34.5366249], [-58.53774643, -34.54416656], [-58.53805923, -34.54460526], [-58.53863525, -34.54522324], [-58.53924179, -34.54587555], [-58.53983307, -34.54650879], [-58.54044724, -34.5471611], [-58.54101181, -34.5477562], [-58.54160684, -34.54839319]]]}}, {"type": "Feature", "properties": {"zona": "Ciudad Jardín El Libertador", "aprox": false, "oficial": true, "clc": "0637101004"}, "geometry": {"type": "Polygon", "coordinates": [[[-58.59814999, -34.56283637], [-58.60531998, -34.55718994], [-58.61845398, -34.54702377], [-58.61769104, -34.54681396], [-58.61754227, -34.546566], [-58.61719132, -34.5459175], [-58.61668396, -34.54553222], [-58.61623764, -34.54528427], [-58.61597061, -34.54520797], [-58.61535645, -34.54500198], [-58.61501694, -34.54460525], [-58.61470032, -34.54419326], [-58.61427689, -34.54387664], [-58.6139679, -34.54372024], [-58.61322403, -34.54334258], [-58.6128273, -34.54308319], [-58.61229325, -34.54239272], [-58.61134339, -34.54099655], [-58.61114502, -34.54035568], [-58.6108551, -34.53965377], [-58.61040116, -34.53891754], [-58.60984421, -34.53790283], [-58.60937882, -34.53744125], [-58.60881806, -34.53658294], [-58.60858536, -34.53603744], [-58.60803604, -34.53541183], [-58.60689545, -34.53486251], [-58.6062088, -34.53442001], [-58.60548401, -34.53320693], [-58.60536957, -34.53251647], [-58.60517884, -34.53152465], [-58.60493088, -34.53012084], [-58.6047287, -34.52861404], [-58.60457611, -34.52762985], [-58.60452271, -34.52703475], [-58.60450745, -34.52645492], [-58.60421753, -34.52562713], [-58.6039238, -34.52500533], [-58.60358429, -34.52433395], [-58.60279846, -34.52293395], [-58.60237503, -34.5224266], [-58.60195542, -34.52185821], [-58.60144806, -34.52111053], [-58.60134888, -34.52064132], [-58.60132218, -34.52031326], [-58.6015625, -34.51916503], [-58.60173416, -34.51870345], [-58.60177231, -34.51791763], [-58.60152817, -34.51715087], [-58.60157776, -34.5167427], [-58.60165787, -34.51651763], [-58.60173798, -34.51618575], [-58.60203552, -34.51549529], [-58.60251236, -34.51391601], [-58.60273743, -34.51324081], [-58.60300827, -34.51239395], [-58.60269928, -34.51161575], [-58.60250855, -34.51136398], [-58.60232544, -34.51080703], [-58.60232163, -34.51045608], [-58.60244751, -34.50978088], [-58.60251618, -34.50935363], [-58.60241699, -34.50865554], [-58.60224915, -34.50824737], [-58.60177994, -34.50675582], [-58.60166168, -34.50643539], [-58.6014061, -34.50553131], [-58.60133743, -34.50452041], [-58.60118866, -34.50400924], [-58.60116196, -34.50331497], [-58.60108185, -34.50303268], [-58.60028076, -34.50213622], [-58.60008883, -34.50185531], [-58.59986115, -34.50152206], [-58.59985996, -34.50152302], [-58.59985927, -34.50152358], [-58.598559843536606, -34.499091741485884], [-58.59824486212311, -34.49815789257885], [-58.59862090015968, -34.49641505819198], [-58.59926756755474, -34.49494428409589], [-58.60007266990827, -34.49420637415737], [-58.60062280683908, -34.4935515734841], [-58.60065176091819, -34.492847575339454], [-58.60053540786733, -34.4915512173163], [-58.60028033531917, -34.49036870569753], [-58.59968845724973, -34.490783114481445], [-58.591073262164436, -34.498197848281336], [-58.56864147837727, -34.51752295966455], [-58.57054365762935, -34.52217098515798], [-58.57148743, -34.5243454], [-58.57281272, -34.52653824], [-58.57683563, -34.53445816], [-58.57683563, -34.53445816], [-58.57741547, -34.53575134], [-58.57759476, -34.53635025], [-58.57786179, -34.5370903], [-58.57822418, -34.53809738], [-58.57823563, -34.53813171], [-58.57857513, -34.53908157], [-58.57857513, -34.53908157], [-58.57885742, -34.53986359], [-58.57893753, -34.54004669], [-58.57930374, -34.54087448], [-58.57968521, -34.54174423], [-58.58007812, -34.54261017], [-58.58047104, -34.54345322], [-58.58086777, -34.54428864], [-58.58119583, -34.54496384], [-58.5815239, -34.54563522], [-58.58193588, -34.546772], [-58.58239744, -34.54794688], [-58.58239746, -34.54794693], [-58.58283234, -34.5490799], [-58.58307648, -34.54970169], [-58.58369827, -34.55129624], [-58.58389282, -34.55162048], [-58.58397675, -34.55183029], [-58.58423996, -34.55249786], [-58.5844841, -34.55312348], [-58.58451462, -34.55320358], [-58.58492661, -34.55424118], [-58.58503723, -34.55452728], [-58.58517837, -34.55489731], [-58.58544922, -34.55557633], [-58.58581543, -34.55651474], [-58.58624649, -34.55761719], [-58.58665848, -34.55867004], [-58.58678818, -34.55899811], [-58.58709717, -34.55979157], [-58.58748245, -34.56077957], [-58.58758926, -34.56128311], [-58.58747498, -34.56220496], [-58.58747482, -34.56220627], [-58.58740616, -34.56272125], [-58.58740616, -34.56272125], [-58.58757401, -34.56301117], [-58.58792114, -34.5631218], [-58.58856583, -34.56397629], [-58.59036247338403, -34.56896969320163], [-58.590600052605815, -34.56863642829516], [-58.59332042653932, -34.56647526031958], [-58.59332042653932, -34.56647526031958], [-58.59332042653932, -34.56647526031958], [-58.59422743056682, -34.56573073655795], [-58.59422743056682, -34.56573073655795], [-58.59449807179208, -34.565515475111944], [-58.59483734732655, -34.56532668658116], [-58.59522315002563, -34.56502965646001], [-58.59581497368157, -34.56457993625536], [-58.5963525046791, -34.564150584165446], [-58.59659415151344, -34.563891804956306], [-58.59693247401954, -34.56367101701736], [-58.597474370732535, -34.563249086566536], [-58.59809876, -34.56281662], [-58.59814999, -34.56283637], [-58.59814999, -34.56283637], [-58.59814999, -34.56283637], [-58.59814999, -34.56283637]]]}}]}