{"type": "FeatureCollection", "features": [{"type": "Feature", "properties": {"zona": "Partido de General San Martín"}, "geometry": {"type": "Polygon", "coordinates": [[[-58.52766361, -34.59644247000001], [-58.52877045000001, -34.59626388000001], [-58.53804141, -34.594866380000006], [-58.550787039999996, -34.59294510000001], [-58.559612269999995, -34.591614789999994], [-58.562023160000024, -34.591251369999995], [-58.56243897000001, -34.591320030000006], [-58.56304932, -34.59064483], [-58.56373596000001, -34.59001159000001], [-58.56412125, -34.58969879], [-58.57208244, -34.583409890000006], [-58.57208246, -34.58340988], [-58.57208255, -34.5834098], [-58.584499939999986, -34.573600770000006], [-58.59035611000002, -34.56897471999999], [-58.59059905999999, -34.5687828], [-58.59814999000001, -34.56283637], [-58.60531998, -34.55718994], [-58.618453979999984, -34.54702377000001], [-58.617691040000004, -34.546813959999994], [-58.61754227, -34.546566], [-58.61719132000001, -34.5459175], [-58.616683959999996, -34.545532220000005], [-58.61623763999999, -34.54528427], [-58.61597060999999, -34.54520797], [-58.615356450000014, -34.54500198], [-58.61501694000002, -34.54460525], [-58.61470032000001, -34.54419326000001], [-58.61427688999999, -34.54387664], [-58.613967899999984, -34.54372024000001], [-58.613224030000005, -34.54334258000001], [-58.61282729999999, -34.54308319], [-58.61229324999999, -34.54239272], [-58.61134339000001, -34.54099655], [-58.61114502000001, -34.540355680000005], [-58.610855100000016, -34.53965377], [-58.610401160000016, -34.53891754], [-58.609844210000006, -34.53790282999999], [-58.609378819999996, -34.53744125000001], [-58.60881805999998, -34.53658294], [-58.608585360000006, -34.53603744], [-58.608036040000016, -34.53541183], [-58.606895450000025, -34.53486251], [-58.6062088, -34.53442000999999], [-58.60548400999999, -34.53320693], [-58.60536957000001, -34.53251647000001], [-58.605178839999994, -34.53152465], [-58.60493088000001, -34.53012084000001], [-58.604728700000024, -34.52861404000001], [-58.60457611000001, -34.52762985], [-58.60452270999999, -34.527034750000006], [-58.60450744999999, -34.526454920000006], [-58.60421753, -34.52562712999998], [-58.60392379999999, -34.52500533], [-58.603584290000015, -34.52433395], [-58.60279846, -34.52293395], [-58.602375030000005, -34.52242660000001], [-58.60195542000002, -34.52185821], [-58.60144806000001, -34.52111053000001], [-58.60134887999998, -34.52064132], [-58.60132218000001, -34.52031326000001], [-58.6015625, -34.519165029999996], [-58.60173416, -34.518703450000004], [-58.60177231, -34.51791762999999], [-58.601528169999995, -34.51715087000001], [-58.601577759999984, -34.51674270000001], [-58.60165786999999, -34.51651763], [-58.601737979999996, -34.51618575], [-58.602035519999994, -34.515495290000004], [-58.60251235999999, -34.51391601000001], [-58.602737430000005, -34.513240810000006], [-58.60300826999999, -34.51239395], [-58.60269928000001, -34.511615750000004], [-58.60250855, -34.511363980000006], [-58.60232543999999, -34.51080703], [-58.602321630000006, -34.51045608], [-58.60244751000001, -34.509780880000015], [-58.60251618, -34.50935363000001], [-58.602416990000016, -34.50865554000001], [-58.602249150000006, -34.508247370000014], [-58.60177994, -34.50675582000001], [-58.60166167999999, -34.50643539000001], [-58.601406100000005, -34.50553131], [-58.60133742999999, -34.50452041], [-58.60118865999999, -34.50400924], [-58.601161960000006, -34.50331497], [-58.60108185, -34.503032680000004], [-58.60028076000001, -34.50213622], [-58.600088830000004, -34.501855309999996], [-58.59986114999999, -34.50152206], [-58.59986114999999, -34.50152206], [-58.599670409999995, -34.50119399], [-58.59955738, -34.50083549000001], [-58.59929276, -34.49999618], [-58.59920883000001, -34.49967192999999], [-58.59888839999999, -34.4991455], [-58.598445890000015, -34.498733509999994], [-58.598567960000004, -34.497142790000005], [-58.59879685, -34.496524810000004], [-58.59897614000002, -34.49580001000001], [-58.599422459999985, -34.495185850000006], [-58.60034943, -34.49437332], [-58.60054016000001, -34.49421310000001], [-58.60071182, -34.49391937000001], [-58.60078811999999, -34.49356841], [-58.60088348999998, -34.49270629], [-58.60082627000001, -34.492370599999994], [-58.60073852999999, -34.49175643], [-58.60057831, -34.49087524], [-58.6004982, -34.49036406999999], [-58.60032653999999, -34.49003982000001], [-58.59625625999999, -34.4935379], [-58.58926009999999, -34.49969482], [-58.56868363, -34.51737594], [-58.56404114, -34.52140426], [-58.55552334, -34.52869213], [-58.55376434999999, -34.53019713999999], [-58.54878616999999, -34.53447341], [-58.54628753999999, -34.5366249], [-58.537746430000006, -34.54416656000001], [-58.53368378, -34.53981017], [-58.533504490000006, -34.5396614], [-58.52979659999999, -34.53733062], [-58.52750016, -34.54167175], [-58.52904510999999, -34.54238509], [-58.526622769999996, -34.545070640000006], [-58.52462005999999, -34.550453180000005], [-58.52283096999999, -34.55307387999999], [-58.519126889999974, -34.557956690000005], [-58.51419795000001, -34.56450762], [-58.51315689, -34.56589126000001], [-58.51082993000001, -34.568016050000004], [-58.50984955, -34.56925582], [-58.51314926, -34.57624435], [-58.516842310000015, -34.58424171], [-58.51702117999999, -34.584629050000004], [-58.519170479999985, -34.5892996], [-58.520900730000015, -34.59305952999999], [-58.52278900000001, -34.597229000000006], [-58.52766361, -34.59644247000001]]]}}]}